OBJECT_NAME,OBJECT_ID,EPOCH,MEAN_MOTION,ECCENTRICITY,INCLINATION,RA_OF_ASC_NODE,ARG_OF_PERICENTER,MEAN_ANOMALY,EPHEMERIS_TYPE,CLASSIFICATION_TYPE,NORAD_CAT_ID,ELEMENT_SET_NO,REV_AT_EPOCH,BSTAR,MEAN_MOTION_DOT,MEAN_MOTION_DDOT
BEIDOU-3S IGSO-1S (C31),2015-019A,2026-06-16T20:07:21.731808,1.00249739,.00390475,49.1960,295.4654,191.2267,171.7060,0,U,40549,999,4107,0,-.175E-5,0
GPS BIIF-10 (PRN 08),2015-033A,2026-06-18T05:14:16.005120,2.00556157,.011508,53.9815,267.0440,30.2343,330.4674,0,U,40730,999,8001,0,-.35E-6,0
BEIDOU-3S M2S (C58),2015-037A,2026-06-17T20:38:49.974432,1.86231902,.0008391,54.8707,302.0235,259.1119,100.7852,0,U,40748,999,7413,0,-.74E-6,0
BEIDOU-3S M1S (C57),2015-037B,2026-06-16T10:58:00.731424,1.86254753,.00034483,54.8681,302.0590,61.6955,298.3263,0,U,40749,999,7411,0,-.7E-6,0
GSAT0205 (GALILEO 9),2015-045A,2026-05-24T07:17:44.873376,1.67409242,.00064058,54.9357,222.4171,263.0112,96.9692,0,U,40889,999,6656,0,-.14E-6,0
GSAT0206 (GALILEO 10),2015-045B,2026-06-18T01:03:10.689408,1.70473811,.000178,54.9444,221.5806,334.3054,25.7732,0,U,40890,999,6705,0,.32E-6,0
BEIDOU-3S IGSO-2S (C56),2015-053A,2026-06-18T16:11:17.568960,1.00258966,.0065595,49.2187,258.7643,192.1216,153.9392,0,U,40938,999,3936,0,-.137E-5,0
GPS BIIF-11 (PRN 10),2015-062A,2026-06-18T06:34:59.066400,2.00566903,.0111896,56.9600,30.7691,230.9854,128.0646,0,U,41019,999,7785,0,-.81E-6,0
GSAT-15 (GAGAN/PRN 139),2015-065A,2026-06-18T20:12:39.982752,1.00272956,.0004337,0.0655,264.6378,165.3519,233.7618,0,U,41028,999,3881,0,-.264E-5,0
GSAT0209 (GALILEO 12),2015-079A,2026-06-18T05:05:12.477408,1.70473656,.000525,55.8280,101.2339,345.1239,14.8344,0,U,41174,999,6479,0,-.11E-6,0
GSAT0208 (GALILEO 11),2015-079B,2026-06-16T02:03:40.443264,1.70473579,.00048641,55.8253,101.2890,343.1626,16.7832,0,U,41175,999,6517,0,-.13E-6,0
IRNSS-1E,2016-003A,2026-06-18T17:31:47.913024,1.00277463,.0018941,33.2372,59.7280,178.9729,42.9724,0,U,41241,999,3809,0,-.318E-5,0
GPS BIIF-12 (PRN 32),2016-007A,2026-06-13T21:04:02.010720,2.00551861,.00961206,55.5220,89.5909,247.4205,111.5460,0,U,41328,999,7577,0,-.28E-6,0
COSMOS 2514 (751),2016-008A,2026-06-18T16:37:50.426400,2.13102579,.0011344,65.0207,312.9548,198.1525,161.7970,0,U,41330,999,8065,0,-.56E-6,0
BEIDOU-2 IGSO-6 (C13),2016-021A,2026-06-16T02:58:21.700128,1.00259474,.00571844,60.2243,38.0497,231.4868,132.3999,0,U,41434,999,3747,0,-.15E-5,0
IRNSS-1G,2016-027A,2026-06-18T16:32:08.570976,1.00265368,.0007549,5.2016,97.4387,355.5290,191.4476,0,U,41469,999,3719,0,-.343E-5,0
GSAT0211 (GALILEO 14),2016-030A,2026-06-18T13:20:53.363616,1.70473904,.0002964,55.0948,221.6573,322.3705,37.6930,0,U,41549,999,6269,0,.29E-6,0
GSAT0210 (GALILEO 13),2016-030B,2026-06-18T05:26:40.812864,1.70473788,.0005022,55.0944,221.6643,247.0655,112.9679,0,U,41550,999,6268,0,.31E-6,0
BEIDOU-2 G7 (C03),2016-037A,2026-06-18T20:24:21.780576,1.00275618,.0006436,1.7247,69.3307,357.6810,256.6428,0,U,41586,999,690,0,-.36E-5,0
EUTELSAT 117 WEST B (WAAS/PRN 131),2016-038B,2026-06-18T18:45:21.258720,1.00271783,.0000602,0.0098,155.1273,315.1255,321.1141,0,U,41589,999,3667,0,-.18E-6,0
GSAT0207 (GALILEO 15),2016-069A,2026-06-18T12:07:27.577920,1.70473586,.0005237,55.4996,101.0498,330.7132,29.2328,0,U,41859,999,5942,0,-.12E-6,0
GSAT0212 (GALILEO 16),2016-069B,2026-06-17T04:27:01.265184,1.70473702,.00046204,55.4965,101.0814,0.5608,359.4079,0,U,41860,999,5965,0,-.13E-6,0
GSAT0213 (GALILEO 17),2016-069C,2026-06-18T03:20:31.040160,1.70474148,.0004872,55.4992,101.0629,313.2322,46.7007,0,U,41861,999,5953,0,-.12E-6,0
GSAT0214 (GALILEO 18),2016-069D,2026-06-14T04:18:14.499936,1.70473798,.0004255,55.4956,101.1651,319.5735,40.3509,0,U,41862,999,5959,0,-.1E-6,0
SES-15 (WAAS/PRN 133),2017-026A,2026-06-18T15:43:48.085824,1.00268456,.0000401,0.0191,340.5761,68.3393,324.7415,0,U,42709,999,744,0,.54E-6,0
QZS-2 (QZSS/PRN 194),2017-028A,2026-06-18T12:27:38.858400,1.00283521,.0759246,39.4254,243.1353,269.2826,83.0137,0,U,42738,999,764,0,-.177E-5,0
QZS-3 (QZSS/PRN 199),2017-048A,2026-06-18T19:53:00.030048,1.00275328,.0001914,0.0665,166.6691,276.9139,248.7177,0,U,42917,999,3227,0,-.354E-5,0
COSMOS 2522 (752),2017-055A,2026-06-18T01:28:30.358272,2.13102224,.00111204,64.0788,191.8550,242.4701,117.4658,0,U,42939,999,6799,0,.58E-6,0
QZS-4 (QZSS/PRN 195),2017-062A,2026-06-18T08:24:11.162016,1.00250086,.0745019,40.1070,343.4662,271.8091,274.2172,0,U,42965,999,3181,0,-.36E-5,0
BEIDOU-3 M1 (C19),2017-069A,2026-06-17T03:11:35.831904,1.86230842,.00104432,56.6923,63.0864,325.9765,33.9976,0,U,43001,999,5860,0,-.51E-6,0
BEIDOU-3 M2 (C20),2017-069B,2026-06-18T03:29:50.145792,1.86230577,.0009148,56.6917,63.0896,351.9570,8.0704,0,U,43002,999,5861,0,-.54E-6,0
